ONEWEB-0098             
1 45442U 20020U   25111.50276966  .00000509  00000+0  13990-2 0  9991
2 45442  87.8793 105.1168 0001707  93.2220 266.9103 13.11417339247371
ONEWEB-0055             
1 45443U 20020V   25110.95171950  .00000094  00000+0  22856-3 0  9998
2 45443  87.8796 105.2289 0001934  87.1951 272.9399 13.11416217247272
ONEWEB-0093             
1 45444U 20020W   25111.38504807 -.00000364  00000+0 -10622-2 0  9997
2 45444  87.8820 105.1279 0002385  82.0140 278.1259 13.11417837247401
ONEWEB-0029             
1 45445U 20020X   25111.47986095 -.00000264  00000+0 -78109-3 0  9995
2 45445  87.8798 105.1206 0002078  83.3953 276.7412 13.11416262247395
ONEWEB-0068             
1 45446U 20020Y   25110.92701512 -.00000467  00000+0 -13542-2 0  9998
2 45446  87.8795 105.2190 0002054  83.0254 277.1108 13.11416673247260
ONEWEB-0046             
1 45447U 20020Z   25110.46091126 -.00000292  00000+0 -86060-3 0  9993
2 45447  87.8798 105.3208 0002267  92.1388 268.0000 13.11417194247203
ONEWEB-0063             
1 45448U 20020AA  25111.48157453 -.00000191  00000+0 -57476-3 0  9990
2 45448  87.8793 105.1165 0002161  93.4025 266.7350 13.11419336247421
ONEWEB-0019             
1 45449U 20020AB  25111.45613105  .00000937  00000+0  26061-2 0  9990
2 45449  87.8809 105.1358 0001969  90.6759 269.4595 13.11422274247271
